     2.100          NAVIGATION                              RINEX VERSION / TYPE
fic2rin                                 04/30/2015 00:16:07 PGM / RUN BY / DATE
                                                            END OF HEADER
12 15  4 29 12  0  0.0  .288762617856D-03  .318323145621D-11  .000000000000D+00
     .980000000000D+02  .903125000000D+01  .366300972192D-08 -.629964385825D+00
     .432133674622D-06  .554814958014D-02  .991113483906D-05  .515369841385D+04
     .302400000000D+06  .894069671631D-07  .280211463402D+01  .633299350739D-07
     .989865157251D+00  .203937500000D+03  .571928158098D+00 -.768496296670D-08
     .700029159024D-10  .100000000000D+01  .184200000000D+04  .000000000000D+00
     .240000000000D+01  .000000000000D+00 -.121071934700D-07  .980000000000D+02
     .295206000000D+06  .400000000000D+01
13 15  4 29 12  0  0.0 -.109974294901D-03 -.341060513165D-11  .000000000000D+00
     .510000000000D+02  .429375000000D+02  .466340853540D-08  .649377101003D+00
     .213645398617D-05  .522461754736D-02  .459142029285D-05  .515367846870D+04
     .302400000000D+06 -.502914190292D-07  .771904218738D+00 -.521540641785D-07
     .974511319988D+00  .298562500000D+03  .207768155397D+01 -.826034407649D-08
     .103218585183D-09  .100000000000D+01  .184200000000D+04  .000000000000D+00
     .240000000000D+01  .000000000000D+00 -.111758708954D-07  .510000000000D+02
     .295206000000D+06  .400000000000D+01
14 15  4 29 12  0  0.0  .672792084515D-04 -.284217094304D-11  .000000000000D+00
     .970000000000D+02  .400312500000D+02  .466197990446D-08  .253174778011D+01
     .196322798729D-05  .802328751888D-02  .451318919659D-05  .515358468246D+04
     .302400000000D+06  .223517417908D-07  .737491354538D+00 -.137835741043D-06
     .967033289458D+00  .292593750000D+03 -.197628199569D+01 -.811462372094D-08
     .110718897601D-10  .100000000000D+01  .184200000000D+04  .000000000000D+00
     .340000000000D+01  .000000000000D+00 -.931322574615D-08  .970000000000D+02
     .295206000000D+06  .400000000000D+01
15 15  4 29 12  0  0.0 -.246331561357D-03 -.216004991671D-11  .000000000000D+00
     .690000000000D+02  .558437500000D+02  .555701718636D-08  .188915173011D+01
     .300072133541D-05  .712417694740D-02  .500865280628D-05  .515362928581D+04
     .302400000000D+06 -.147148966789D-06  .614293265037D+00  .178813934326D-06
     .933774632513D+00  .271093750000D+03  .391104726282D+00 -.866607526253D-08
     .138220043134D-09  .100000000000D+01  .184200000000D+04  .000000000000D+00
     .240000000000D+01  .000000000000D+00 -.107102096081D-07  .690000000000D+02
     .295206000000D+06  .400000000000D+01
16 15  4 29 12  0  0.0 -.134078320116D-03  .363797880709D-11  .000000000000D+00
     .800000000000D+02  .234062500000D+02  .352121810144D-08 -.275072889186D+01
     .113993883133D-05  .818289187737D-02  .106114894152D-04  .515355013275D+04
     .302400000000D+06 -.298023223877D-07  .282077759490D+01 -.167638063431D-07
     .990423817870D+00  .192156250000D+03  .284098489111D+00 -.752209903990D-08
     .212866009581D-09  .100000000000D+01  .184200000000D+04  .000000000000D+00
     .240000000000D+01  .000000000000D+00 -.102445483208D-07  .800000000000D+02
     .295206000000D+06  .400000000000D+01
17 15  4 29 12  0  0.0 -.168688129634D-03 -.181898940355D-11  .000000000000D+00
     .250000000000D+02  .197500000000D+02  .433553773541D-08  .262296981439D+01
     .100024044514D-05  .100974617526D-01  .500679016113D-05  .515375041962D+04
     .302400000000D+06  .521540641785D-07 -.243594363040D+01 -.949949026108D-07
     .972138572194D+00  .287000000000D+03 -.200977435526D+01 -.794354516626D-08
     .329299430929D-09  .100000000000D+01  .184200000000D+04  .000000000000D+00
     .240000000000D+01  .000000000000D+00 -.107102096081D-07  .250000000000D+02
     .295206000000D+06  .400000000000D+01
18 15  4 29 12  0  0.0  .397597905248D-03  .295585778076D-11  .000000000000D+00
     .920000000000D+02  .334687500000D+02  .519735934802D-08 -.217357080163D+01
     .163726508617D-05  .161317653256D-01  .995211303234D-05  .515377635002D+04
     .302400000000D+06  .206753611565D-06 -.404918031810D+00  .167638063431D-07
     .925431046021D+00  .163500000000D+03 -.197227357528D+01 -.805962142987D-08
     .243581574722D-09  .100000000000D+01  .184200000000D+04  .000000000000D+00
     .240000000000D+01  .000000000000D+00 -.111758708954D-07  .920000000000D+02
     .295206000000D+06  .400000000000D+01
19 15  4 29 12  0  0.0 -.508872326463D-03 -.125055521494D-11  .000000000000D+00
     .750000000000D+02  .118437500000D+02  .459304846176D-08  .184097650797D+01
     .581145286560D-06  .112915186910D-01  .504590570927D-05  .515371839142D+04
     .302400000000D+06 -.227242708206D-06 -.238624646728D+01  .763684511185D-07
     .969174953250D+00  .287718750000D+03  .535720040330D+00 -.828855953749D-08
     .202151277555D-09  .100000000000D+01  .184200000000D+04  .000000000000D+00
     .240000000000D+01  .000000000000D+00 -.153668224812D-07  .750000000000D+02
     .295206000000D+06  .400000000000D+01
20 15  4 29 12  0  0.0  .315007288009D-03  .375166564481D-11  .000000000000D+00
     .900000000000D+02  .123750000000D+02  .522628912449D-08  .281497322604D+01
     .553205609322D-06  .567634927575D-02  .107754021883D-04  .515580127144D+04
     .302400000000D+06  .372529029846D-07 -.457385120589D+00 -.111758708954D-06
     .926580213522D+00  .153968750000D+03  .121680030089D+01 -.814855370568D-08
     .585738684082D-10  .100000000000D+01  .184200000000D+04  .000000000000D+00
     .240000000000D+01  .000000000000D+00 -.838190317154D-08  .900000000000D+02
     .295206000000D+06  .400000000000D+01
21 15  4 29 12  0  0.0 -.441255047917D-03 -.363797880709D-11  .000000000000D+00
     .770000000000D+02 -.454062500000D+02  .534022244170D-08 -.107764835974D+01
    -.185891985893D-05  .225430771243D-01  .690482556820D-05  .515357371521D+04
     .302400000000D+06  .372529029846D-08 -.144852610040D+01  .564381480217D-06
     .933428411006D+00  .232250000000D+03 -.191521744269D+01 -.865214611090D-08
    -.151792037033D-09  .100000000000D+01  .184200000000D+04  .000000000000D+00
     .485000000000D+01  .000000000000D+00 -.116415321827D-07  .770000000000D+02
     .295206000000D+06  .400000000000D+01
22 15  4 29 12  0  0.0  .344927422702D-03  .420641299570D-11  .000000000000D+00
     .660000000000D+02  .287187500000D+02  .528772025477D-08 -.260738404024D+01
     .129453837872D-05  .783772440627D-02  .104252249002D-04  .515369635773D+04
     .302400000000D+06  .130385160446D-06 -.403698171718D+00 -.204890966415D-07
     .923241639897D+00  .156687500000D+03 -.205404954313D+01 -.823355724642D-08
     .167506977338D-09  .100000000000D+01  .184200000000D+04  .000000000000D+00
     .340000000000D+01  .000000000000D+00 -.176951289177D-07  .660000000000D+02
     .295206000000D+06  .400000000000D+01
23 15  4 29 12  0  0.0 -.105060636997D-03 -.250111042988D-11  .000000000000D+00
     .410000000000D+02  .538437500000D+02  .527521973408D-08  .143167522981D+01
     .302493572235D-05  .100595556432D-01  .500679016113D-05  .515362535858D+04
     .302400000000D+06 -.447034835815D-07  .666086624450D+00  .165775418282D-06
     .948891728669D+00  .279906250000D+03 -.269217284253D+01 -.863035948911D-08
     .285726187357D-10  .100000000000D+01  .184200000000D+04  .000000000000D+00
     .240000000000D+01  .000000000000D+00 -.200234353542D-07  .410000000000D+02
     .295206000000D+06  .400000000000D+01
24 15  4 29 12  0  0.0 -.474508851767D-04 -.682121026330D-12  .000000000000D+00
     .740000000000D+02 -.491562500000D+02  .485127350359D-08  .678967092950D+00
    -.244379043579D-05  .322731269989D-02  .596791505814D-05  .515367588234D+04
     .302400000000D+06  .745058059692D-08  .169336304865D+01  .335276126862D-07
     .953471667282D+00  .256812500000D+03  .361352419184D+00 -.835820529566D-08
    -.443232748137D-09  .100000000000D+01  .184200000000D+04  .000000000000D+00
     .240000000000D+01  .000000000000D+00  .232830643654D-08  .740000000000D+02
     .295206000000D+06  .400000000000D+01
25 15  4 29 12  0  0.0 -.242595560849D-04 -.363797880709D-11  .000000000000D+00
     .340000000000D+02  .456250000000D+01  .382123059816D-08 -.130727691111D+01
     .214204192162D-06  .455406284891D-02  .100303441286D-04  .515369308281D+04
     .302400000000D+06  .139698386192D-06  .275583650941D+01 -.428408384323D-07
     .978363361767D+00  .197000000000D+03  .703064125946D+00 -.770067790700D-08
     .171435712414D-10  .100000000000D+01  .184200000000D+04  .000000000000D+00
     .240000000000D+01  .000000000000D+00  .558793544769D-08  .340000000000D+02
     .295206000000D+06  .400000000000D+01
26 15  4 29 12  0  0.0  .248472206295D-04  .477484718431D-11  .000000000000D+00
     .630000000000D+02  .106250000000D+02  .420803242430D-08 -.311931267018D+01
     .577419996262D-06  .249925185926D-03  .102669000626D-04  .515356499672D+04
     .302400000000D+06 -.521540641785D-07  .275374603605D+01  .109896063805D-06
     .960481173428D+00  .183968750000D+03  .114568671052D+01 -.787532803902D-08
     .113219001740D-09  .100000000000D+01  .184200000000D+04  .000000000000D+00
     .340000000000D+01  .000000000000D+00  .745058059692D-08  .630000000000D+02
     .295206000000D+06  .400000000000D+01
27 15  4 29 12  0  0.0  .683791004121D-04  .272848410532D-11  .000000000000D+00
     .560000000000D+02  .197187500000D+02  .454876090272D-08  .271697000910D+01
     .112876296043D-05  .237349595409D-02  .506080687046D-05  .515368756866D+04
     .302400000000D+06 -.335276126862D-07 -.248353510434D+01 -.316649675369D-07
     .967054507622D+00  .284312500000D+03  .178517555470D+00 -.822212819893D-08
     .338228374284D-09  .100000000000D+01  .184200000000D+04  .000000000000D+00
     .240000000000D+01  .000000000000D+00  .139698386192D-08  .560000000000D+02
     .295206000000D+06  .400000000000D+01
